{
  "norad_id": 64388,
  "name": "STARLINK-34198",
  "history": [
    {
      "epoch": "2026-03-28T16:00:39.461760Z",
      "apogee_km": 484.0098316099711,
      "perigee_km": 482.15551838060674,
      "latitude_deg": 1.2729850068386189e-05,
      "longitude_deg": 5.994206910929612,
      "height_km": 482.8761618675014,
      "semi_major_axis_km": 6861.219674995288,
      "eccentricity": 0.00013513,
      "inclination_deg": 43.0027,
      "raan_deg": 72.2429,
      "arg_perigee_deg": 268.9786,
      "mean_anomaly_deg": 91.0911,
      "mean_motion_rev_day": 15.27568786
    },
    {
      "epoch": "2026-03-28T23:51:26.828064Z",
      "apogee_km": 483.1449528810854,
      "perigee_km": 482.9089288415189,
      "latitude_deg": 5.431386542488288e-06,
      "longitude_deg": -113.871904518899,
      "height_km": 482.80795326946094,
      "semi_major_axis_km": 6861.163940861302,
      "eccentricity": 1.72e-05,
      "inclination_deg": 43.0007,
      "raan_deg": 70.3964,
      "arg_perigee_deg": 267.3991,
      "mean_anomaly_deg": 92.6841,
      "mean_motion_rev_day": 15.27587399
    },
    {
      "epoch": "2026-03-29T23:23:47.655168Z",
      "apogee_km": 483.5839787060704,
      "perigee_km": 482.3908291722255,
      "latitude_deg": 7.033532921600307e-05,
      "longitude_deg": -113.46473165032855,
      "height_km": 483.20678460015205,
      "semi_major_axis_km": 6861.124403939148,
      "eccentricity": 8.695e-05,
      "inclination_deg": 42.9959,
      "raan_deg": 64.857,
      "arg_perigee_deg": 138.2556,
      "mean_anomaly_deg": 221.8363,
      "mean_motion_rev_day": 15.27600603
    },
    {
      "epoch": "2026-03-30T08:48:43.650432Z",
      "apogee_km": 483.96267946875014,
      "perigee_km": 481.9995763499928,
      "latitude_deg": 6.537445736936236e-05,
      "longitude_deg": 102.69996680135891,
      "height_km": 482.8167504152887,
      "semi_major_axis_km": 6861.118127909371,
      "eccentricity": 0.00014306,
      "inclination_deg": 43.0048,
      "raan_deg": 62.6417,
      "arg_perigee_deg": 266.5902,
      "mean_anomaly_deg": 93.4787,
      "mean_motion_rev_day": 15.27602699
    },
    {
      "epoch": "2026-03-30T22:56:08.867616Z",
      "apogee_km": 483.47461808321896,
      "perigee_km": 482.6393363284333,
      "latitude_deg": 2.283253615901634e-05,
      "longitude_deg": -113.05578805221771,
      "height_km": 482.715663549584,
      "semi_major_axis_km": 6861.193977205826,
      "eccentricity": 6.087e-05,
      "inclination_deg": 43.0019,
      "raan_deg": 59.3211,
      "arg_perigee_deg": 286.3432,
      "mean_anomaly_deg": 73.7353,
      "mean_motion_rev_day": 15.27577368
    },
    {
      "epoch": "2026-03-31T08:21:05.256864Z",
      "apogee_km": 483.9255523836355,
      "perigee_km": 482.1877492557569,
      "latitude_deg": 2.3997578354501356e-05,
      "longitude_deg": 103.10367096237444,
      "height_km": 482.86993926209357,
      "semi_major_axis_km": 6861.193650819696,
      "eccentricity": 0.00012664,
      "inclination_deg": 43.0025,
      "raan_deg": 57.1022,
      "arg_perigee_deg": 267.5972,
      "mean_anomaly_deg": 92.4735,
      "mean_motion_rev_day": 15.27577477
    },
    {
      "epoch": "2026-04-01T14:10:03.544320Z",
      "apogee_km": 484.26029394741363,
      "perigee_km": 481.749116083377,
      "latitude_deg": -4.0290999048186615e-05,
      "longitude_deg": 7.6221321980973284,
      "height_km": 482.8805186663896,
      "semi_major_axis_km": 6861.141705015395,
      "eccentricity": 0.000183,
      "inclination_deg": 43.0014,
      "raan_deg": 50.0881,
      "arg_perigee_deg": 265.4947,
      "mean_anomaly_deg": 94.5695,
      "mean_motion_rev_day": 15.27594825
    },
    {
      "epoch": "2026-04-02T13:42:24.164064Z",
      "apogee_km": 483.75477171708735,
      "perigee_km": 482.2302287421353,
      "latitude_deg": -1.5125004610774654e-05,
      "longitude_deg": 8.02722945360887,
      "height_km": 482.63796474577134,
      "semi_major_axis_km": 6861.129500229611,
      "eccentricity": 0.0001111,
      "inclination_deg": 43.0032,
      "raan_deg": 44.5458,
      "arg_perigee_deg": 279.9226,
      "mean_anomaly_deg": 80.15,
      "mean_motion_rev_day": 15.27598901
    },
    {
      "epoch": "2026-04-02T21:33:10.853856Z",
      "apogee_km": 483.69877577445095,
      "perigee_km": 482.23022560924346,
      "latitude_deg": -3.726261283846626e-06,
      "longitude_deg": -111.83453516645237,
      "height_km": 482.7687331387353,
      "semi_major_axis_km": 6861.101500691847,
      "eccentricity": 0.00010702,
      "inclination_deg": 42.9994,
      "raan_deg": 42.7008,
      "arg_perigee_deg": 267.8236,
      "mean_anomaly_deg": 92.2493,
      "mean_motion_rev_day": 15.27608252
    },
    {
      "epoch": "2026-04-03T05:23:57.294816Z",
      "apogee_km": 483.83162563458154,
      "perigee_km": 482.04225755061543,
      "latitude_deg": -1.6334469291916166e-05,
      "longitude_deg": 128.30531407955564,
      "height_km": 482.726691819671,
      "semi_major_axis_km": 6861.073941592598,
      "eccentricity": 0.0001304,
      "inclination_deg": 43.0024,
      "raan_deg": 40.8564,
      "arg_perigee_deg": 269.1761,
      "mean_anomaly_deg": 90.8941,
      "mean_motion_rev_day": 15.27617456
    },
    {
      "epoch": "2026-04-04T20:37:53.328000Z",
      "apogee_km": 483.4304854609236,
      "perigee_km": 482.5893088513312,
      "latitude_deg": 3.606192528619477e-05,
      "longitude_deg": -111.022113014565,
      "height_km": 482.43237317098937,
      "semi_major_axis_km": 6861.146897156127,
      "eccentricity": 6.13e-05,
      "inclination_deg": 43.0013,
      "raan_deg": 31.6236,
      "arg_perigee_deg": 327.1799,
      "mean_anomaly_deg": 32.9015,
      "mean_motion_rev_day": 15.27593091
    },
    {
      "epoch": "2026-04-05T12:19:26.895936Z",
      "apogee_km": 483.46392085874413,
      "perigee_km": 482.546860566802,
      "latitude_deg": -9.344942860576002e-06,
      "longitude_deg": 9.250896557090632,
      "height_km": 482.75927904844343,
      "semi_major_axis_km": 6861.142390712773,
      "eccentricity": 6.683e-05,
      "inclination_deg": 43.0019,
      "raan_deg": 27.931,
      "arg_perigee_deg": 272.7982,
      "mean_anomaly_deg": 87.2793,
      "mean_motion_rev_day": 15.27594596
    },
    {
      "epoch": "2026-04-06T04:01:00.923520Z",
      "apogee_km": 483.9849301750346,
      "perigee_km": 482.098517696676,
      "latitude_deg": -3.2074007872036205e-05,
      "longitude_deg": 129.52230963500557,
      "height_km": 482.88250697549876,
      "semi_major_axis_km": 6861.178723935855,
      "eccentricity": 0.00013747,
      "inclination_deg": 43.0016,
      "raan_deg": 24.2387,
      "arg_perigee_deg": 266.1134,
      "mean_anomaly_deg": 93.956,
      "mean_motion_rev_day": 15.27582462
    },
    {
      "epoch": "2026-04-07T03:33:21.656448Z",
      "apogee_km": 483.96464821805057,
      "perigee_km": 482.0129323757428,
      "latitude_deg": 6.63090506733272e-05,
      "longitude_deg": 129.9310086702326,
      "height_km": 482.6977727232742,
      "semi_major_axis_km": 6861.125790296896,
      "eccentricity": 0.00014223,
      "inclination_deg": 43.002,
      "raan_deg": 18.7004,
      "arg_perigee_deg": 273.9933,
      "mean_anomaly_deg": 86.0757,
      "mean_motion_rev_day": 15.2760014
    },
    {
      "epoch": "2026-04-08T10:56:29.258016Z",
      "apogee_km": 483.93365582316255,
      "perigee_km": 482.08649780714313,
      "latitude_deg": 2.2302486893236237e-05,
      "longitude_deg": 10.474230215437105,
      "height_km": 482.66842856408886,
      "semi_major_axis_km": 6861.147076815153,
      "eccentricity": 0.00013461,
      "inclination_deg": 43.0043,
      "raan_deg": 11.3143,
      "arg_perigee_deg": 277.3897,
      "mean_anomaly_deg": 82.6802,
      "mean_motion_rev_day": 15.27593031
    },
    {
      "epoch": "2026-04-09T10:28:50.212992Z",
      "apogee_km": 483.78559485733695,
      "perigee_km": 482.31167495924547,
      "latitude_deg": 7.331976283084045e-06,
      "longitude_deg": 10.88218019251048,
      "height_km": 482.76843802027787,
      "semi_major_axis_km": 6861.185634908291,
      "eccentricity": 0.00010741,
      "inclination_deg": 43.0016,
      "raan_deg": 5.7763,
      "arg_perigee_deg": 274.4207,
      "mean_anomaly_deg": 85.6522,
      "mean_motion_rev_day": 15.27580154
    },
    {
      "epoch": "2026-04-10T10:01:10.530336Z",
      "apogee_km": 484.38567674512706,
      "perigee_km": 481.5616435974007,
      "latitude_deg": 7.834479956979162e-06,
      "longitude_deg": 11.291211056806553,
      "height_km": 482.7206266360261,
      "semi_major_axis_km": 6861.110660171264,
      "eccentricity": 0.0002058,
      "inclination_deg": 43.0038,
      "raan_deg": 0.2367,
      "arg_perigee_deg": 271.2448,
      "mean_anomaly_deg": 88.8168,
      "mean_motion_rev_day": 15.27605193
    },
    {
      "epoch": "2026-04-11T09:33:31.816224Z",
      "apogee_km": 483.75792967677535,
      "perigee_km": 482.35961797806976,
      "latitude_deg": 8.170424779490746e-06,
      "longitude_deg": 11.696095720546637,
      "height_km": 482.8204188788805,
      "semi_major_axis_km": 6861.195773827422,
      "eccentricity": 0.0001019,
      "inclination_deg": 43.002,
      "raan_deg": 354.697,
      "arg_perigee_deg": 271.2257,
      "mean_anomaly_deg": 88.8478,
      "mean_motion_rev_day": 15.27576768
    },
    {
      "epoch": "2026-04-13T00:47:27.179808Z",
      "apogee_km": 484.01698686087184,
      "perigee_km": 482.05729830226664,
      "latitude_deg": 6.766871438066742e-05,
      "longitude_deg": 132.37427328619592,
      "height_km": 482.7927285408974,
      "semi_major_axis_km": 6861.174142581569,
      "eccentricity": 0.00014281,
      "inclination_deg": 43.0019,
      "raan_deg": 345.467,
      "arg_perigee_deg": 271.2483,
      "mean_anomaly_deg": 88.8206,
      "mean_motion_rev_day": 15.27583992
    }
  ]
}